{
    "links": {
        "self": "http://www.neowsapp.com/rest/v1/neo/3458492?api_key=iIulBulltgU6a56xZRHN4H3l9WmuAYTsLGpBGhQ2"
    },
    "id": "3458492",
    "neo_reference_id": "3458492",
    "name": "(2009 HJ36)",
    "designation": "2009 HJ36",
    "nasa_jpl_url": "http://ssd.jpl.nasa.gov/sbdb.cgi?sstr=3458492",
    "absolute_magnitude_h": 27.9,
    "estimated_diameter": {
        "kilometers": {
            "estimated_diameter_min": 0.0069912523,
            "estimated_diameter_max": 0.0156329154
        },
        "meters": {
            "estimated_diameter_min": 6.9912523225,
            "estimated_diameter_max": 15.6329154409
        },
        "miles": {
            "estimated_diameter_min": 0.0043441614,
            "estimated_diameter_max": 0.0097138403
        },
        "feet": {
            "estimated_diameter_min": 22.9371802696,
            "estimated_diameter_max": 51.289094295
        }
    },
    "is_potentially_hazardous_asteroid": false,
    "close_approach_data": [
        {
            "close_approach_date": "2009-04-28",
            "close_approach_date_full": "2009-Apr-28 20:26",
            "epoch_date_close_approach": 1240950360000,
            "relative_velocity": {
                "kilometers_per_second": "6.1058599554",
                "kilometers_per_hour": "21981.0958396067",
                "miles_per_hour": "13658.1981343378"
            },
            "miss_distance": {
                "astronomical": "0.024644074",
                "lunar": "9.586544786",
                "kilometers": "3686700.97852238",
                "miles": "2290809.761793644"
            },
            "orbiting_body": "Earth"
        },
        {
            "close_approach_date": "2011-04-07",
            "close_approach_date_full": "2011-Apr-07 14:45",
            "epoch_date_close_approach": 1302187500000,
            "relative_velocity": {
                "kilometers_per_second": "11.0054990568",
                "kilometers_per_hour": "39619.7966045005",
                "miles_per_hour": "24618.2008401687"
            },
            "miss_distance": {
                "astronomical": "0.1816899282",
                "lunar": "70.6773820698",
                "kilometers": "27180426.259172934",
                "miles": "16889133.7179131292"
            },
            "orbiting_body": "Earth"
        },
        {
            "close_approach_date": "2013-03-26",
            "close_approach_date_full": "2013-Mar-26 23:24",
            "epoch_date_close_approach": 1364340240000,
            "relative_velocity": {
                "kilometers_per_second": "16.3081529602",
                "kilometers_per_hour": "58709.3506568305",
                "miles_per_hour": "36479.7073567401"
            },
            "miss_distance": {
                "astronomical": "0.3598467133",
                "lunar": "139.9803714737",
                "kilometers": "53832301.836180671",
                "miles": "33449841.2712524198"
            },
            "orbiting_body": "Earth"
        },
        {
            "close_approach_date": "2080-03-24",
            "close_approach_date_full": "2080-Mar-24 04:15",
            "epoch_date_close_approach": 3478479300000,
            "relative_velocity": {
                "kilometers_per_second": "18.2437734942",
                "kilometers_per_hour": "65677.5845789512",
                "miles_per_hour": "40809.4969290711"
            },
            "miss_distance": {
                "astronomical": "0.4265068978",
                "lunar": "165.9111832442",
                "kilometers": "63804523.451187686",
                "miles": "39646292.4495586268"
            },
            "orbiting_body": "Earth"
        }
    ],
    "orbital_data": {
        "orbit_id": "6",
        "orbit_determination_date": "2017-04-06 09:00:43",
        "first_observation_date": "2009-04-21",
        "last_observation_date": "2009-04-22",
        "data_arc_in_days": 1,
        "observations_used": 22,
        "orbit_uncertainty": "8",
        "minimum_orbit_intersection": ".0169283",
        "jupiter_tisserand_invariant": "4.325",
        "epoch_osculation": "2454943.5",
        "eccentricity": ".3571156815468814",
        "semi_major_axis": "1.577374253001072",
        "inclination": "3.853407824979249",
        "ascending_node_longitude": "34.24824053384828",
        "orbital_period": "723.6033160126652",
        "perihelion_distance": "1.014069171586091",
        "perihelion_argument": "202.7494431910295",
        "aphelion_distance": "2.140679334416053",
        "perihelion_time": "2454966.212671910173",
        "mean_anomaly": "348.7002150118406",
        "mean_motion": ".4975101578911212",
        "equinox": "J2000",
        "orbit_class": {
            "orbit_class_type": "APO",
            "orbit_class_description": "Near-Earth asteroid orbits which cross the Earth’s orbit similar to that of 1862 Apollo",
            "orbit_class_range": "a (semi-major axis) > 1.0 AU; q (perihelion) < 1.017 AU"
        }
    },
    "is_sentry_object": false
}